O3B FM8                 
1 40082U 14038D   25116.56050713 -.00000015  00000+0  00000+0 0  9997
2 40082   0.0489   8.6351 0002629  25.6918 325.6918  5.00115648197102
ORBCOMM FM109           
1 40086U 14040A   25117.34275459  .00001551  00000+0  37022-3 0  9990
2 40086  47.0034 256.4093 0001226 130.6617 229.4375 14.58090836573766
ORBCOMM FM107           
1 40087U 14040B   25117.37367362  .00001542  00000+0  36779-3 0  9997
2 40087  47.0050 257.2460 0000583  19.3768 340.7139 14.58152689573767
NAVSTAR 71 (USA 256)    
1 40105U 14045A   25117.23691313  .00000046  00000+0  00000+0 0  9996
2 40105  55.0912 105.0580 0028066 117.1592 243.1249  2.00557579 78629
ASIASAT 8 (AMOS-7)      
1 40107U 14046A   25115.33734898 -.00000333  00000+0  00000+0 0  9994
2 40107   0.0597  55.0994 0000686 312.8039  72.8439  1.00276109 97952
YAOGAN-20 01A           
1 40109U 14047A   25117.20675882  .00000020  00000+0  12839-3 0  9991
2 40109  63.3849  11.2641 0353783  12.5484 348.4070 13.45387494526510
YAOGAN-20 01B           
1 40110U 14047B   25116.91070175  .00000042  00000+0  15357-3 0  9996
2 40110  63.3850  12.8993 0353624  12.5705 348.3860 13.45386065526273
YAOGAN-20 01C           
1 40111U 14047C   25116.90446269  .00000025  00000+0  13341-3 0  9999
2 40111  63.3841  12.6476 0353728  12.9245 348.0562 13.45397098526281
WORLDVIEW-3 (WV-3)      
1 40115U 14048A   25117.50735925  .00002192  00000+0  26263-3 0  9995
2 40115  97.8597 192.5535 0004024 244.9993 115.0804 14.85100475580241
GAOFEN-2                
1 40118U 14049A   25117.54544596  .00002306  00000+0  30712-3 0  9996
2 40118  98.0632 175.9447 0006854 117.1180 243.0731 14.80634914577743
BRITE-PL2 (HEWELIUSZ)   
1 40119U 14049B   25117.24281104  .00004867  00000+0  48036-3 0  9999
2 40119  97.8862 222.4024 0015679  52.6412 307.6232 14.92350916579454
GSAT0201 (GALILEO 5)    
1 40128U 14050A   25116.24080077 -.00000049  00000+0  00000+0 0  9990
2 40128  49.3306 290.4285 1627259 163.2927 202.7693  1.85519602 70580
GSAT0202 (GALILEO 6)    
1 40129U 14050B   25115.95890696 -.00000047  00000+0  00000+0 0  9992
2 40129  49.3463 289.5209 1627191 164.0600 201.7337  1.85520249 72745
LING QIAO               
1 40136U 14051A   25117.50066930  .00000193  00000+0  91724-4 0  9999
2 40136  98.6913 114.3725 0020019 313.6865  46.2658 14.30168520555623
CHUANGXIN 1-04 (CX-1-04)
1 40137U 14051B   25117.49899435  .00000260  00000+0  11722-3 0  9996
2 40137  98.6914 114.3333 0021539 315.0777  44.8662 14.30273600555609
ASIASAT 6               
1 40141U 14052A   25116.71086492 -.00000359  00000+0  00000+0 0  9990
2 40141   0.0478  88.9396 0000895 274.1644 227.6718  1.00272311 38892
YAOGAN-21               
1 40143U 14053A   25117.48904678  .00014456  00000+0  59787-3 0  9995
2 40143  97.2036 170.2294 0016035 167.7374 192.4257 15.23947998591671
OPTUS 10                
1 40146U 14054A   25117.34232804 -.00000145  00000+0  00000+0 0  9990
2 40146   0.0954 313.7537 0002591  36.1028 144.9612  1.00271766 38953
MEASAT-3B               
1 40147U 14054B   25117.48706226 -.00000240  00000+0  00000+0 0  9996
2 40147   0.0520  57.2054 0003395 352.9410  72.4130  1.00273350 39002
LUCH (OLYMP-K 1)        
1 40258U 14058A   25116.84141963  .00000005  00000+0  00000+0 0  9991
2 40258   0.8168  87.7942 0001584 298.3731 128.9802  1.00416466 36829
SJ-11-07                
1 40261U 14059A   25117.45512557  .00001240  00000+0  25029-3 0  9999
2 40261  98.0365 193.1676 0011199  27.3836 332.7955 14.63090798564128
HIMAWARI-8              
1 40267U 14060A   25117.54760249 -.00000273  00000+0  00000+0 0  9994
2 40267   0.0585  85.0512 0000290 339.7966 128.7439  1.00270525 38696
IRNSS-1C                
1 40269U 14061A   25117.04639289 -.00000155  00000+0  00000+0 0  9990
2 40269   5.4588  97.3841 0021045   2.0594 215.5916  1.00272960 38655
INTELSAT 30 (IS-30)     
1 40271U 14062A   25114.55941172 -.00000148  00000+0  00000+0 0  9996
2 40271   0.0097 278.8798 0000789 137.0349 263.2510  1.00271212 38569
ARSAT 1                 
1 40272U 14062B   25116.72118609 -.00000257  00000+0  00000+0 0  9990
2 40272   0.0289  14.7139 0001813  13.8712  14.1991  1.00272959 38434
YAOGAN-22               
1 40275U 14063A   25116.95498973  .00000000  00000+0  12282-3 0  9998
2 40275 100.7083 257.5058 0006720  51.8938 308.2778 13.15508881505083
EXPRESS-AM6             
1 40277U 14064A   25116.90114122  .00000101  00000+0  00000+0 0  9990
2 40277   0.0133 255.7783 0000891  56.9156 279.8578  1.00269450 37403
SJ-11-08                
1 40286U 14066A   25117.52688594  .00001772  00000+0  33699-3 0  9999
2 40286  98.2933 251.9991 0013547  95.9717 264.3030 14.65349040560331
NAVSTAR 72 (USA 258)    
1 40294U 14068A   25117.10463405 -.00000065  00000+0  00000+0 0  9997
2 40294  56.6838  47.0300 0058509  64.4471 296.1428  2.00579664 76840
MERIDIAN 7              
1 40296U 14069A   25116.44568043  .00000150  00000+0  00000+0 0  9994
2 40296  63.4920 258.6532 6851238 272.6560  17.1061  2.00603268 76870
ASNARO                  
1 40298U 14070A   25117.51600612  .00018994  00000+0  89997-3 0  9997
2 40298  97.3799 198.7651 0007108 169.9384 190.1994 15.19337205580903
YAOGAN-24               
1 40310U 14072A   25117.50088540  .00002047  00000+0  30366-3 0  9991
2 40310  98.0921 247.8011 0014792 156.2442 203.9453 14.76106999562415
COSMOS 2501 [GLONASS-K] 
1 40315U 14075A   25117.53694668  .00000038  00000+0  00000+0 0  9992
2 40315  63.6144 204.7648 0020906 208.8700 151.0637  2.13101322 80996
GSAT-16                 
1 40332U 14078A   25117.54063031  .00000087  00000+0  00000+0 0  9993
2 40332   0.0068 231.6154 0006392 199.2898  34.5394  1.00271265 38098
DIRECTV 14              
1 40333U 14078B   25116.62361442 -.00000122  00000+0  00000+0 0  9990
2 40333   0.0231 300.5996 0000238 295.6911 103.8647  1.00270378 37860
CBERS 4                 
1 40336U 14079A   25117.54611145  .00000325  00000+0  12769-3 0  9997
2 40336  98.3562 182.9820 0001984  99.1977 260.9434 14.35533262544347
YAOGAN-25 01A           
1 40338U 14080A   25116.89606186 -.00000028  00000+0  75586-4 0  9995
2 40338  63.3907 302.9761 0329633   7.2253 353.3356 13.45363542509650
YAOGAN-25 01B           
1 40339U 14080B   25116.89008766 -.00000037  00000+0  65292-4 0  9999
2 40339  63.3915 303.1262 0329914   7.0671 353.4841 13.45380829509627
YAOGAN-25 01C           
1 40340U 14080C   25116.88900839 -.00000052  00000+0  46506-4 0  9996
2 40340  63.3897 303.4705 0329543   7.7112 352.8806 13.45379420509740
YAMAL 401               
1 40345U 14082A   25116.85045080 -.00000226  00000+0  00000+0 0  9995
2 40345   0.0187 273.7534 0000162   6.7950 330.6630  1.00273555 37741
O3B FM10                
1 40348U 14083A   25116.18727798 -.00000014  00000+0  00000+0 0  9993
2 40348   0.0515  14.2507 0001427  78.1165 267.6507  5.00114802189038
O3B FM11                
1 40349U 14083B   25116.99992901 -.00000015  00000+0  00000+0 0  9994
2 40349   0.0466 357.4293 0002941  50.9858 311.6117  5.00115604189259
O3B FM12                
1 40350U 14083C   25116.42750397 -.00000014  00000+0  00000+0 0  9994
2 40350   0.0472 358.1096 0002912  40.4842 321.4286  5.00115753189073
O3B FM9                 
1 40351U 14083D   25116.45425858 -.00000014  00000+0  00000+0 0  9999
2 40351   0.0456 357.0275 0002676  40.4157 322.5771  5.00115502189229
COSMOS 2502             
1 40358U 14086A   25117.49324548  .00000055  00000+0  92471-4 0  9990
2 40358  67.1512 299.2896 0006979 253.3633 106.6686 13.97750242527563
YAOGAN-26               
1 40362U 14088A   25117.50131531  .00021210  00000+0  69796-3 0  9996
2 40362  97.0658 127.7630 0008566 108.6044 251.6129 15.31491242575236
ASTRA 2G                
1 40364U 14089A   25116.91781134  .00000152  00000+0  00000+0 0  9994
2 40364   0.0569  35.6839 0004747  10.4896 167.5814  1.00270104 37796
FENGYUN 2G              
1 40367U 14090A   25117.40662096 -.00000296  00000+0  00000+0 0  9999
2 40367   4.5853  77.8467 0003040 134.1342 249.2615  1.00276549 37879
MUOS-3                  
1 40374U 15002A   25117.38403206 -.00000125  00000+0  00000+0 0  9995
2 40374   3.7526  40.2607 0052031 181.0707 117.1043  1.00271683 37642
SMAP                    
1 40376U 15003A   25116.94265461  .00001161  00000+0  23385-3 0  9993
2 40376  98.1294 124.9056 0001225 101.0875 259.0465 14.63347063546748
INMARSAT 5-F2           
1 40384U 15005A   25116.46662734 -.00000282  00000+0  00000+0 0  9994
2 40384   0.0271 121.2307 0000317 167.3526  39.1022  1.00270912 36815
COSMOS 2503             
1 40420U 15009A   25116.86630754  .00003992  00000+0  28613-3 0  9994
2 40420  97.8873 160.6125 0016066 216.2528 143.7610 15.04870840556285
ABS-3A                  
1 40424U 15010A   25117.31498035 -.00000024  00000+0  00000+0 0  9995
2 40424   0.0137 258.4666 0001645  82.9208 344.5705  1.00270017 37195
EUTELSAT 115 WEST B     
1 40425U 15010B   25116.57876380 -.00000022  00000+0  00000+0 0  9994
2 40425   0.0124  99.8118 0000114 220.7733 347.7094  1.00270930 37219
MMS 1                   
1 40482U 15011A   25117.58335648 -.00000425  00000+0  00000+0 0  9994
2 40482  63.2175 356.5027 8754270 158.4762 299.6389  0.28550363 16261
MMS 2                   
1 40483U 15011B   25117.58335648 -.00000425  00000+0  00000+0 0  9995
2 40483  63.1833 356.5197 8752781 158.4614 299.6067  0.28550239 16244
MMS 3                   
1 40484U 15011C   25117.58335648 -.00000425  00000+0  00000+0 0  9996
2 40484  63.2167 356.5059 8751874 158.4700 299.6121  0.28550272 16249
MMS 4                   
1 40485U 15011D   25117.58335648 -.00000425  00000+0  00000+0 0  9997
2 40485  63.2065 356.5103 8754828 158.4619 290.2509  0.28537368 16246
EXPRESS-AM7             
1 40505U 15012A   25116.94002897  .00000153  00000+0  00000+0 0  9994
2 40505   0.0090 163.6083 0002898 227.5469 202.4329  1.00272855 36836
